ISS OBJECT XW           
1 66910U 98067XW  26047.83431345  .00110170  00000+0  11638-2 0  9992
2 66910  51.6264 171.3860 0002625 344.5571  15.5343 15.63344372 11919
ISS OBJECT XX           
1 66911U 98067XX  26047.96456898  .00173906  00000+0  15799-2 0  9995
2 66911  51.6244 170.0024 0004581 336.8957  23.1833 15.66886650 11935
ISS OBJECT XY           
1 66912U 98067XY  26047.59275737  .00078325  00000+0  94754-3 0  9994
2 66912  51.6285 173.5323 0000861 347.6773  12.4199 15.59991807 11854
ISS OBJECT XZ           
1 67683U 98067XZ  26047.65741969  .00039055  00000+0  68494-3 0  9991
2 67683  51.6311 176.2115 0010453 117.3582 242.8472 15.50110674  1529
GXIBA-1                 
1 67684U 98067YA  26047.65278760  .00074552  00000+0  12496-2 0  9997
2 67684  51.6308 176.1816 0012102 110.9325 249.2961 15.51081436  1528
CORAL                   
1 67685U 98067YB  26047.65651785  .00044575  00000+0  77477-3 0  9993
2 67685  51.6312 176.2061 0012396 113.0551 247.1746 15.50278727  1525
ISS OBJECT YC           
1 67686U 98067YC  26047.59123449  .00052403  00000+0  90420-3 0  9990
2 67686  51.6314 176.5206 0007796  86.2899 273.8981 15.50464751  1516
LEOPARD                 
1 67687U 98067YD  26047.65689113  .00043795  00000+0  76465-3 0  9990
2 67687  51.6316 176.2085 0007839  89.2385 270.9502 15.50209521  1443
ISS OBJECT YE           
1 67688U 98067YE  26047.65599918  .00048248  00000+0  83591-3 0  9990
2 67688  51.6315 176.2033 0007765  86.9328 273.2550 15.50385572  1445
CREW DRAGON 12          
1 67796U 26031A   26048.18286298  .00009660  00000+0  18518-3 0  9997
2 67796  51.6319 173.7204 0011018 107.0393 253.1803 15.48657976   572
